OBJECT_NAME,OBJECT_ID,EPOCH,MEAN_MOTION,ECCENTRICITY,INCLINATION,RA_OF_ASC_NODE,ARG_OF_PERICENTER,MEAN_ANOMALY,EPHEMERIS_TYPE,CLASSIFICATION_TYPE,NORAD_CAT_ID,ELEMENT_SET_NO,REV_AT_EPOCH,BSTAR,MEAN_MOTION_DOT,MEAN_MOTION_DDOT
NETSAT-2,2020-068X,2026-05-19T19:16:47.703360,15.44679297,.0006262,97.8629,145.5843,95.3113,264.8849,0,U,46507,999,31135,.36781E-3,.17083E-3,0
GREENCUBE (IO-117),2022-080E,2026-05-19T09:23:51.019872,6.42583330,.000884,70.1431,308.2634,296.5004,63.4749,0,U,53109,999,9021,0,-.3E-7,0
SITRO-AIS 5 (KATYS),2023-091L,2026-05-19T20:45:54.828288,15.28731773,.0011394,97.5070,203.5085,194.3141,165.7778,0,U,57176,999,16001,.31631E-3,.8776E-4,0
SITRO-AIS 6 (CHIRKIN),2023-091AC,2026-05-19T20:17:38.098176,15.25335490,.0011521,97.5078,202.7551,197.8168,162.2667,0,U,57192,999,15996,.28612E-3,.7151E-4,0
SITRO-AIS 8 (ANOKHIN),2023-091AD,2026-05-19T20:45:57.911904,15.31283587,.0010707,97.5066,204.9850,189.8525,170.2507,0,U,57193,999,16011,.34061E-3,.10233E-3,0
SITRO-AIS 7 (FARTUSHNIY),2023-091AE,2026-05-19T20:14:00.148992,15.25037309,.0011337,97.5076,202.5919,198.8935,161.1883,0,U,57194,999,15995,.27838E-3,.6893E-4,0
SITRO-AIS 10 (BURDAEV),2023-091AK,2026-05-19T19:37:33.250080,15.37430415,.0007632,97.5089,209.7059,163.6434,196.5058,0,U,57199,999,16040,.41831E-3,.15294E-3,0
SITRO-AIS 9 (SHCHUKIN),2023-091AM,2026-05-19T20:03:04.499136,15.36974421,.0007851,97.5086,209.4756,164.1856,195.9635,0,U,57201,999,16039,.40553E-3,.14606E-3,0
SITRO-AIS 12 (SMIRENNIY),2023-091AQ,2026-05-19T19:57:12.312000,15.37259820,.0007631,97.5100,209.9210,158.6047,201.5518,0,U,57204,999,16041,.40798E-3,.14831E-3,0
SITRO-AIS 11 (SHEFFER),2023-091AU,2026-05-19T20:27:26.776800,15.37657714,.000754,97.5098,210.1717,158.4437,201.7126,0,U,57208,999,16043,.42153E-3,.15526E-3,0
SITRO-AIS 25,2024-039R,2026-05-19T19:59:21.792768,14.93303883,.014726,95.3917,215.6105,67.6574,294.0184,0,U,59066,999,12049,.24743E-3,.3175E-4,0
SITRO-AIS 26,2024-039S,2026-05-19T19:55:49.675584,14.93105734,.0147577,95.3917,215.5122,68.2117,293.4737,0,U,59067,999,12048,.24782E-3,.3166E-4,0
SITRO-AIS 27,2024-039T,2026-05-19T21:00:49.720608,14.93515734,.0146514,95.3918,215.8019,66.7471,294.9103,0,U,59068,999,12051,.23796E-3,.3064E-4,0
SITRO-AIS 28,2024-039U,2026-05-19T18:52:48.013248,14.93551561,.0146438,95.3920,215.7865,66.8812,294.7769,0,U,59071,999,12050,.20074E-3,.2581E-4,0
GRBBETA,2024-128C,2026-05-19T19:29:31.098336,15.06380239,.0044531,61.9903,315.8018,128.7809,231.7275,0,U,60237,999,10199,.20657E-3,.2903E-4,0
OOV-CUBE (TUBSAT-30),2024-128F,2026-05-19T12:12:39.157920,15.02610612,.004822,61.9945,325.5624,127.5162,233.0326,0,U,60240,999,10180,.12723E-3,.1527E-4,0
ROBUSTA-3A (MEDITERRANEE),2024-128J,2026-05-19T18:05:03.211296,15.11180770,.004534,61.9869,308.7612,122.6336,237.9147,0,U,60243,999,10212,.33886E-3,.5631E-4,0
LASARSAT,2024-247Q,2026-05-19T05:04:36.966144,15.44422390,.0005508,44.9757,64.7984,164.9742,195.1311,0,U,62391,999,7883,.42671E-3,.19872E-3,0
CROCUBE,2024-247T,2026-05-19T19:46:15.075840,15.46082351,.0005415,44.9734,59.1307,172.8847,187.2120,0,U,62394,999,7895,.57089E-3,.28316E-3,0
FORESAIL-1 PRIME,2025-276DS,2026-05-19T15:53:27.007296,15.18409334,.0002445,97.4205,213.4600,166.7371,193.3928,0,U,66778,999,2607,.15099E-3,.3039E-4,0
KNACKSAT-2,1998-067XZ,2026-05-19T13:29:19.253760,15.57281514,.0012128,51.6305,78.1668,94.1366,266.1012,0,U,67683,999,1581,.46414E-3,.34272E-3,0
